{"type": "FeatureCollection", "features": [
 {"type":"Feature","geometry":{"type":"MultiLineString","coordinates":[[[-108.2224,38.7685],[-108.2271,38.7711],[-108.2271,38.773]],[[-108.2224,38.7685],[-108.2271,38.773]],[[-108.2271,38.773],[-108.2298,38.7767],[-108.2486,38.785],[-108.2669,38.7983],[-108.2696,38.8029],[-108.2755,38.806],[-108.283,38.8139],[-108.2901,38.817]],[[-108.2901,38.817],[-108.292,38.8178]],[[-108.292,38.8178],[-108.2901,38.817]],[[-109.8755,38.9373],[-109.8543,38.9369],[-109.8367,38.9394],[-109.8162,38.9457],[-109.8033,38.9476],[-109.7209,38.9716],[-109.7032,38.9693],[-109.6939,38.9583],[-109.6874,38.955],[-109.6313,38.9493],[-109.5499,38.9466],[-109.4519,38.9358],[-109.4376,38.9353],[-109.4186,38.9398],[-109.4001,38.9499],[-109.3951,38.9506],[-109.389,38.9579],[-109.3863,38.9588]],[[-109.8755,38.9373],[-109.8905,38.9368],[-109.9228,38.9251],[-109.9341,38.923],[-109.9454,38.9217],[-109.9602,38.9227],[-109.9684,38.9274],[-109.9882,38.931],[-110.0055,38.9369],[-110.0242,38.9467],[-110.0291,38.9468],[-110.0299,38.9501],[-110.0468,38.9629]],[[-109.8755,38.9373],[-109.8937,38.9509],[-109.8999,38.9528],[-109.9124,38.9605],[-109.9123,38.9645],[-109.9188,38.9678],[-109.9285,38.9673],[-109.9442,38.9714],[-109.9493,38.9712],[-109.9577,38.9755],[-109.9638,38.972],[-109.9675,38.974],[-109.9961,38.9764],[-110.025,38.9814],[-110.0407,38.9912],[-110.0888,38.9909],[-110.0995,38.989]],[[-109.2674,38.9604],[-109.2676,38.9606]],[[-109.2674,38.9604],[-109.2651,38.9578],[-109.261,38.9602],[-109.2542,38.9704],[-109.2574,38.9743],[-109.2441,38.9883],[-109.24,38.9992],[-109.2266,39.0018],[-109.2092,39.0137],[-109.2052,39.0185],[-109.17,39.0415],[-109.15,39.0594],[-109.1465,39.0665],[-109.1396,39.0743],[-109.1187,39.0834],[-109.1099,39.0855],[-109.1023,39.0922],[-109.0983,39.096],[-109.098,39.1021],[-109.1,39.1096],[-109.0963,39.1215],[-109.0839,39.1306],[-109.0768,39.1321],[-109.0755,39.134],[-109.0764,39.1374]],[[-109.2676,38.9606],[-109.2674,38.9604]],[[-109.2676,38.9606],[-109.2956,38.9604],[-109.3094,38.9677],[-109.3224,38.9702],[-109.3262,38.9736],[-109.3366,38.9736],[-109.3429,38.9758],[-109.3549,38.9755],[-109.363,38.9701],[-109.3748,38.9684],[-109.3778,38.965]],[[-109.3825,38.9607],[-109.3863,38.9588]],[[-109.3825,38.9607],[-109.3863,38.9588]],[[-110.0468,38.9629],[-110.0653,38.9734]],[[-110.0468,38.9629],[-110.0653,38.9734]],[[-109.3796,38.9633],[-109.3818,38.9627],[-109.3825,38.9607]],[[-109.3796,38.9633],[-109.3825,38.9607]],[[-109.3778,38.965],[-109.3796,38.9633]],[[-109.3778,38.965],[-109.3796,38.9633]],[[-110.0653,38.9734],[-110.0806,38.9783],[-110.0995,38.989]],[[-110.0995,38.989],[-110.1117,38.9869],[-110.1348,38.9904]],[[-109.0764,39.1374],[-109.0744,39.1391]],[[-109.0764,39.1374],[-109.0744,39.1391]],[[-109.0744,39.1391],[-109.0709,39.1389],[-109.0696,39.1405],[-109.0677,39.1388],[-109.0603,39.1376],[-109.0531,39.1405]],[[-107.0138,38.2808],[-107.0133,38.2823]],[[-107.0138,38.2808],[-107.0223,38.2744],[-107.042,38.2763],[-107.0487,38.279],[-107.054,38.2781],[-107.0579,38.2751],[-107.0755,38.2761],[-107.0822,38.2706],[-107.0913,38.2692],[-107.1052,38.2754],[-107.1151,38.2829],[-107.1293,38.2859],[-107.1387,38.2901],[-107.1452,38.2895],[-107.1514,38.2856]],[[-107.0138,38.2808],[-107.0189,38.2886]],[[-107.0133,38.2823],[-107.0189,38.2886]],[[-107.0133,38.2823],[-107.0186,38.2896],[-107.0197,38.2936]],[[-107.1514,38.2856],[-107.156,38.2858]],[[-107.1514,38.2856],[-107.1537,38.2868],[-107.156,38.2858]],[[-107.156,38.2858],[-107.1688,38.2802],[-107.1766,38.2804],[-107.1838,38.2722],[-107.1895,38.2732],[-107.1969,38.2814],[-107.1952,38.2848],[-107.1975,38.2886],[-107.2033,38.2911],[-107.2108,38.2901],[-107.2212,38.2946],[-107.2235,38.2984],[-107.2245,38.3158],[-107.2284,38.3186],[-107.2289,38.3224],[-107.2309,38.3219],[-107.2307,38.3264],[-107.2379,38.3318],[-107.2427,38.3368],[-107.2432,38.3392],[-107.2454,38.3405],[-107.2505,38.3376],[-107.2553,38.338],[-107.2814,38.3518],[-107.2922,38.3554],[-107.2944,38.3591],[-107.3165,38.3632],[-107.3405,38.3726],[-107.3444,38.3764],[-107.348,38.3754],[-107.3544,38.3774],[-107.3598,38.3829],[-107.3672,38.3858],[-107.3765,38.386],[-107.3919,38.3946],[-107.3978,38.3946],[-107.4052,38.3991],[-107.4079,38.4042],[-107.4123,38.4011],[-107.4145,38.3936],[-107.4232,38.3857],[-107.4273,38.3833],[-107.4333,38.3853]],[[-107.0189,38.2886],[-107.0197,38.2936]],[[-107.0197,38.2936],[-107.0201,38.2958],[-107.0178,38.297],[-106.9976,38.2995],[-106.9796,38.2967],[-106.9652,38.3023],[-106.9521,38.315],[-106.9478,38.3278],[-106.9335,38.3349],[-106.9302,38.3336],[-106.9263,38.3353],[-106.9223,38.334],[-106.9239,38.338],[-106.9212,38.3418],[-106.9143,38.3408],[-106.898,38.346],[-106.8835,38.3439],[-106.8683,38.3446],[-106.8594,38.3502],[-106.8522,38.3526],[-106.8492,38.3555],[-106.8333,38.3538],[-106.8295,38.3507],[-106.8192,38.3513],[-106.8134,38.3465],[-106.813,38.3381],[-106.8145,38.3345],[-106.8107,38.3326],[-106.8065,38.3242],[-106.8075,38.3195],[-106.801,38.3187],[-106.7974,38.3155],[-106.7765,38.3059],[-106.7738,38.3005],[-106.7706,38.2992],[-106.7687,38.2945],[-106.7493,38.2867],[-106.7447,38.2742],[-106.7399,38.2694],[-106.6961,38.255],[-106.6728,38.2436],[-106.6387,38.2385],[-106.6248,38.229],[-106.6185,38.2268],[-106.5831,38.2254],[-106.5778,38.224],[-106.5714,38.2192],[-106.5425,38.211],[-106.5294,38.2032],[-106.5185,38.1942],[-106.5008,38.19],[-106.491,38.1859],[-106.4617,38.1663],[-106.4563,38.1652],[-106.4604,38.1499],[-106.4584,38.1392],[-106.4548,38.1365],[-106.441,38.1318],[-106.3663,38.1212],[-106.3553,38.1243],[-106.3453,38.1348],[-106.3309,38.12],[-106.3156,38.1153],[-106.3099,38.1099],[-106.3022,38.107],[-106.2787,38.1046],[-106.2641,38.1084],[-106.2536,38.109],[-106.2447,38.1068],[-106.2316,38.1],[-106.2155,38.0994],[-106.1892,38.0885],[-106.1316,38.0882],[-106.1197,38.0907],[-106.0985,38.0896],[-106.081,38.0907],[-106.0615,38.0958],[-106.0485,38.1041],[-106.036,38.1051],[-106.0152,38.1033],[-105.9551,38.1038],[-105.8406,38.1007],[-105.8099,38.098],[-105.8048,38.0968],[-105.7983,38.0924],[-105.7782,38.0704],[-105.7558,38.0594],[-105.7472,38.0534],[-105.7362,38.0389],[-105.7283,38.0339],[-105.7228,38.028],[-105.72,38.0215],[-105.7112,38.0124],[-105.7025,37.9984],[-105.6823,37.9825],[-105.6696,37.9557],[-105.658,37.947],[-105.6563,37.9352],[-105.6501,37.9158],[-105.638,37.8932],[-105.6311,37.8755],[-105.629,37.8656],[-105.6302,37.8538],[-105.6216,37.8418],[-105.6225,37.8032],[-105.6152,37.7782],[-105.6106,37.7709],[-105.6067,37.7526],[-105.6048,37.6587],[-105.598,37.6181],[-105.5968,37.5887],[-105.5913,37.5597],[-105.5839,37.5462],[-105.5769,37.5164],[-105.5776,37.5081],[-105.5757,37.4998],[-105.5688,37.4841],[-105.5631,37.4754],[-105.554,37.4651],[-105.5237,37.44],[-105.5146,37.4247],[-105.4932,37.3994],[-105.4778,37.3748],[-105.4478,37.3324],[-105.4359,37.312],[-105.4326,37.2984],[-105.4328,37.2626],[-105.4295,37.2417],[-105.4286,37.2193],[-105.4253,37.2045],[-105.4243,37.186],[-105.4222,37.1806],[-105.3977,37.1613],[-105.3971,37.1515],[-105.3942,37.1462],[-105.387,37.1385],[-105.384,37.1249],[-105.3866,37.0824],[-105.3896,37.072],[-105.4029,37.0446],[-105.4016,37.0238],[-105.4096,37.0098],[-105.4191,36.9985],[-105.4319,36.992],[-105.4805,36.983],[-105.5349,36.9765],[-105.5382,36.9746],[-105.5396,36.9677],[-105.5455,36.9566],[-105.5544,36.9209],[-105.5585,36.914],[-105.559,36.9076],[-105.5665,36.8892],[-105.5774,36.8433],[-105.5868,36.7813],[-105.5854,36.7521],[-105.5872,36.7424],[-105.595,36.7212],[-105.5993,36.7],[-105.6006,36.6815],[-105.5998,36.6581],[-105.6026,36.6516],[-105.6164,36.6344],[-105.6161,36.6207],[-105.6178,36.6166],[-105.6439,36.5958],[-105.6528,36.5868],[-105.6717,36.5451],[-105.6714,36.5368],[-105.6676,36.5306],[-105.6546,36.5141],[-105.6457,36.506],[-105.5875,36.4636],[-105.5541,36.4475],[-105.544,36.4397],[-105.5598,36.4266],[-105.5723,36.4076]],[[-107.4333,38.3853],[-107.4359,38.3856]],[[-107.4333,38.3853],[-107.4359,38.3856]],[[-107.4359,38.3856],[-107.4402,38.384],[-107.4467,38.3894],[-107.458,38.3935],[-107.4662,38.3994],[-107.4736,38.4],[-107.4768,38.4026],[-107.4897,38.4019],[-107.4977,38.3991],[-107.5058,38.4037],[-107.5133,38.4046],[-107.5277,38.415],[-107.5412,38.4321],[-107.5543,38.4398]],[[-109.0514,39.1419],[-109.0446,39.1533],[-109.0315,39.159],[-109.0207,39.1698],[-109.0107,39.174],[-109.0032,39.1819],[-108.9901,39.1884],[-108.9754,39.2018],[-108.9214,39.2221],[-108.8899,39.2172],[-108.8624,39.2103],[-108.8485,39.2041],[-108.8332,39.1935],[-108.8212,39.1896],[-108.8118,39.1887],[-108.7846,39.191],[-108.774,39.1897],[-108.6817,39.1445],[-108.6604,39.1312],[-108.63,39.1193],[-108.595,39.092],[-108.5819,39.0829],[-108.5586,39.0703],[-108.5469,39.0618],[-108.5379,39.0527],[-108.5258,39.0452],[-108.525,39.0325],[-108.5281,39.0308],[-108.5253,39.0197],[-108.5062,39.0103],[-108.5049,39.0069],[-108.4982,39.0048],[-108.4959,39.0016],[-108.4818,38.9984],[-108.4716,38.9907],[-108.4559,38.9907],[-108.4498,38.9884],[-108.4341,38.9676],[-108.4023,38.9339],[-108.3826,38.9187],[-108.3568,38.8836],[-108.3351,38.8582],[-108.3307,38.8553],[-108.3292,38.8497],[-108.3237,38.8429],[-108.3253,38.8373],[-108.3217,38.8272],[-108.292,38.8178]],[[-109.0531,39.1405],[-109.0519,39.1412]],[[-109.0519,39.1412],[-109.0514,39.1419]],[[-109.0526,39.1414],[-109.0531,39.1405]],[[-109.0526,39.1414],[-109.0519,39.1412]],[[-109.0514,39.1419],[-109.0526,39.1414]],[[-107.5885,38.4374],[-107.5543,38.4398]],[[-107.5885,38.4374],[-107.6095,38.4404],[-107.6187,38.4394],[-107.6243,38.4444],[-107.6367,38.4423],[-107.6469,38.4489],[-107.6557,38.4515],[-107.6618,38.4514],[-107.6696,38.4573],[-107.6775,38.4572],[-107.6918,38.4642],[-107.6964,38.4691],[-107.7109,38.4748],[-107.7206,38.4808],[-107.7251,38.4807],[-107.7344,38.4842],[-107.7566,38.4832],[-107.7611,38.4778],[-107.7804,38.4719],[-107.7848,38.4691],[-107.7954,38.4698],[-107.81,38.4627],[-107.8427,38.4587],[-107.8695,38.4596],[-107.8783,38.4659],[-107.8985,38.4849],[-107.9032,38.4982],[-107.9115,38.508],[-107.9138,38.5178],[-107.9242,38.5252],[-107.934,38.535],[-107.942,38.5491],[-107.9462,38.5532],[-107.9652,38.5647],[-107.9689,38.5914],[-107.9751,38.6086],[-107.9793,38.6148],[-107.9977,38.6325],[-108.01,38.6684],[-108.0242,38.6889],[-108.0392,38.7],[-108.0554,38.7063],[-108.0675,38.7135],[-108.0829,38.7316],[-108.1099,38.7515],[-108.1129,38.7601],[-108.1387,38.7537],[-108.1477,38.748],[-108.167,38.744],[-108.175,38.7461],[-108.1947,38.7558],[-108.2044,38.7623],[-108.2224,38.7685]],[[-107.5543,38.4398],[-107.5588,38.4429],[-107.5685,38.4411],[-107.5807,38.4426],[-107.5885,38.4374]],[[-105.7659,36.1224],[-105.781,36.1001],[-105.7999,36.0761],[-105.8191,36.0581],[-105.8353,36.0471],[-105.8456,36.0343],[-105.8802,36.0177],[-105.8971,36.0063],[-105.9183,36.0072],[-105.9311,36.0021],[-105.9696,36.0039],[-105.9795,36.0022],[-105.9937,35.9946],[-106.0151,35.9892],[-106.0376,35.9876],[-106.054,35.989],[-106.0641,35.9871]],[[-105.7659,36.1224],[-105.763,36.1247],[-105.7624,36.1288],[-105.7577,36.1316],[-105.7463,36.1331],[-105.7411,36.1369],[-105.7411,36.1455],[-105.7386,36.1481],[-105.7394,36.1577],[-105.7324,36.1694],[-105.7311,36.1757],[-105.7286,36.1785],[-105.7202,36.182],[-105.7208,36.1843],[-105.7173,36.1866],[-105.7124,36.1941],[-105.7136,36.1966],[-105.7104,36.2007],[-105.6978,36.1951],[-105.678,36.1939],[-105.6706,36.1906],[-105.6659,36.1904],[-105.6598,36.1977],[-105.6515,36.2029],[-105.6471,36.203],[-105.6423,36.2215],[-105.6432,36.2266],[-105.6419,36.2288],[-105.6351,36.2309],[-105.6339,36.2333],[-105.6437,36.248],[-105.6446,36.2519],[-105.6434,36.256],[-105.6287,36.2585],[-105.6213,36.2661],[-105.6133,36.2815],[-105.6111,36.2928],[-105.6142,36.3089],[-105.6135,36.3234],[-105.6161,36.3318],[-105.6164,36.3401],[-105.6135,36.3468],[-105.6145,36.3529],[-105.5973,36.3678],[-105.5733,36.4035],[-105.5723,36.4076]],[[-105.784,36.1318],[-105.7793,36.1309],[-105.7659,36.1224]],[[-105.784,36.1318],[-105.8054,36.1334],[-105.8146,36.1325],[-105.8345,36.1261],[-105.8463,36.1172],[-105.8571,36.114],[-105.8878,36.1371],[-105.9179,36.1441],[-105.9561,36.1579],[-105.9756,36.1592]],[[-105.9756,36.1592],[-106.0042,36.1334],[-106.0336,36.1129],[-106.0605,36.0835],[-106.0753,36.0535]],[[-105.8681,36.1935],[-105.8738,36.1931],[-105.8851,36.1959],[-105.8896,36.192],[-105.9089,36.1887],[-105.9272,36.1802],[-105.9567,36.1742],[-105.9685,36.169],[-105.9756,36.1592]],[[-105.8681,36.1935],[-105.8572,36.1928],[-105.8502,36.1902],[-105.8444,36.1861],[-105.8276,36.1685],[-105.8087,36.1608],[-105.7997,36.1491],[-105.7946,36.1397],[-105.784,36.1318]],[[-105.8681,36.1935],[-105.8572,36.2098],[-105.8488,36.2139]],[[-105.8488,36.2139],[-105.847,36.2178],[-105.8419,36.2216],[-105.8312,36.2233]],[[-105.8488,36.2139],[-105.8384,36.2143],[-105.8366,36.2187],[-105.8312,36.2233]],[[-105.8312,36.2233],[-105.8237,36.221],[-105.8177,36.2212],[-105.8112,36.2262],[-105.8008,36.2286],[-105.7957,36.2328],[-105.7852,36.2366],[-105.7707,36.2462],[-105.7713,36.2486],[-105.7683,36.2527],[-105.7684,36.2643],[-105.7756,36.2736],[-105.7648,36.2798],[-105.756,36.2886],[-105.7475,36.2928],[-105.745,36.2961],[-105.7452,36.3014],[-105.7398,36.3041],[-105.7326,36.3027],[-105.7303,36.3094],[-105.7271,36.313],[-105.6935,36.3382],[-105.6795,36.3463],[-105.6674,36.3595],[-105.6619,36.3617],[-105.6472,36.3804],[-105.6337,36.3868],[-105.6308,36.3929],[-105.6264,36.3934],[-105.6217,36.3973],[-105.6026,36.4011],[-105.598,36.4035],[-105.5862,36.4034],[-105.5723,36.4076]]]},"properties":{"name":"North Branch","kind":"route"}},
 {"type":"Feature","geometry":{"type":"MultiLineString","coordinates":[[[-114.3154,36.6663],[-114.3264,36.6242],[-114.3282,36.6074],[-114.3312,36.6001],[-114.3308,36.5938],[-114.3274,36.5858],[-114.3275,36.5793],[-114.3324,36.57],[-114.338,36.5494],[-114.3335,36.5379],[-114.3326,36.5302],[-114.3417,36.5149],[-114.3468,36.4957],[-114.3477,36.4535],[-114.3493,36.4437],[-114.352,36.4354],[-114.3585,36.4251],[-114.3663,36.4058],[-114.3803,36.3786],[-114.3846,36.3646],[-114.3883,36.3442],[-114.3984,36.3116],[-114.4058,36.2655],[-114.4074,36.2245],[-114.4067,36.1844],[-114.41,36.166],[-114.4156,36.1524],[-114.4471,36.1481],[-114.4516,36.1448],[-114.4569,36.1439],[-114.4672,36.1472],[-114.4779,36.147],[-114.4873,36.152],[-114.4922,36.1505],[-114.5027,36.1507],[-114.5216,36.1609],[-114.5341,36.1645],[-114.5467,36.1703],[-114.5604,36.1853],[-114.5718,36.1913],[-114.6051,36.1879],[-114.6342,36.1972],[-114.6407,36.2013],[-114.6459,36.2009],[-114.6836,36.1902],[-114.6979,36.1824],[-114.708,36.1718],[-114.7148,36.1548],[-114.7139,36.1504],[-114.7051,36.1393],[-114.7027,36.1336],[-114.7019,36.1222],[-114.7073,36.1136],[-114.7163,36.1102],[-114.7507,36.1035],[-114.8023,36.1033],[-114.8217,36.108],[-114.8456,36.1166],[-114.8666,36.1274],[-114.8898,36.1273],[-114.9048,36.1228],[-114.9307,36.1043],[-114.95,36.0955],[-114.9761,36.0892],[-115.0056,36.0863],[-115.0129,36.0841],[-115.0217,36.0775],[-115.0335,36.0759],[-115.0484,36.0665],[-115.0548,36.0603],[-115.0582,36.0537],[-115.0644,36.0493],[-115.0833,36.0432],[-115.1174,36.0279],[-115.13,36.021],[-115.1392,36.0135],[-115.1436,36.008],[-115.1518,35.987],[-115.1843,35.95],[-115.1881,35.9411],[-115.1887,35.9332],[-115.2243,35.8843],[-115.2463,35.864],[-115.254,35.8464],[-115.26,35.8173],[-115.2645,35.8082],[-115.2783,35.7939],[-115.2851,35.7916],[-115.2939,35.7923],[-115.3304,35.7863],[-115.344,35.7877],[-115.3795,35.8033],[-115.427,35.8279],[-115.4323,35.8338],[-115.4413,35.8379],[-115.4503,35.8493],[-115.4577,35.8538],[-115.4687,35.8585],[-115.5014,35.8675],[-115.5139,35.8758],[-115.5261,35.8765],[-115.5359,35.8746],[-115.5402,35.8701],[-115.5477,35.8549],[-115.5529,35.852],[-115.5979,35.8461],[-115.6056,35.8479],[-115.6124,35.853],[-115.6419,35.8608],[-115.658,35.8691],[-115.676,35.8717],[-115.727,35.8739],[-115.7829,35.8836],[-115.8033,35.8857],[-115.8652,35.8852],[-115.9033,35.8907],[-115.9081,35.8872],[-115.9191,35.8858],[-115.9285,35.882],[-115.9395,35.8813],[-115.9909,35.8812],[-116.0539,35.8846]],[[-111.9104,37.1238],[-111.9071,37.1132],[-111.8981,37.1036],[-111.8974,37.1006],[-111.8673,37.0937],[-111.8188,37.0992],[-111.8035,37.0956],[-111.6874,37.0789],[-111.6657,37.0719],[-111.656,37.0637],[-111.6447,37.0645],[-111.6377,37.0618],[-111.612,37.0476],[-111.5703,37.0375],[-111.5051,37.0147],[-111.4698,37.0076],[-111.4598,37.0081],[-111.4163,37.0193],[-111.3795,37.0199],[-111.3616,37.0183],[-111.3484,37.0205],[-111.3383,37.027],[-111.3277,37.046],[-111.3241,37.0476],[-111.3171,37.0464],[-111.2922,37.0279],[-111.2847,37.0183],[-111.2821,37.0067],[-111.2828,36.999],[-111.2806,36.9961],[-111.274,36.9937],[-111.2719,36.9856],[-111.2622,36.9666],[-111.2548,36.9377],[-111.2508,36.9349],[-111.2495,36.9318],[-111.2479,36.9209],[-111.2191,36.8864],[-111.2171,36.866],[-111.213,36.8584],[-111.2019,36.8456],[-111.1938,36.8262],[-111.1899,36.8208],[-111.1779,36.8142],[-111.14,36.8054],[-111.1276,36.7941],[-111.1185,36.7882],[-111.1053,36.7864],[-111.0928,36.7826],[-111.0826,36.7836],[-111.0757,36.7861],[-111.0532,36.8003],[-111.0319,36.8074],[-111.0138,36.8078],[-111.0069,36.81],[-110.9901,36.8198],[-110.9589,36.8304],[-110.9475,36.8426],[-110.9373,36.8492],[-110.9271,36.8519],[-110.9155,36.8524],[-110.8789,36.8648],[-110.8357,36.872],[-110.8216,36.8836],[-110.8019,36.8902],[-110.7877,36.8971],[-110.7838,36.898],[-110.7588,36.8948],[-110.7404,36.8816],[-110.73,36.8828],[-110.7263,36.8814],[-110.7153,36.8716],[-110.7085,36.8612],[-110.6957,36.8513],[-110.6885,36.8491],[-110.6746,36.8511],[-110.6703,36.8493],[-110.6508,36.8261],[-110.604,36.7869],[-110.5936,36.7757],[-110.5676,36.7606],[-110.5556,36.751],[-110.5495,36.7407],[-110.5397,36.7171],[-110.5208,36.6918],[-110.5132,36.6851],[-110.5061,36.6813],[-110.4959,36.6722],[-110.4855,36.6677],[-110.4797,36.6623],[-110.4633,36.6615],[-110.4351,36.6491],[-110.4143,36.6616],[-110.4013,36.6729],[-110.3835,36.6923],[-110.3456,36.7124],[-110.2966,36.7266],[-110.2777,36.7301],[-110.2535,36.7322],[-110.2437,36.7359],[-110.221,36.7348],[-110.2146,36.738],[-110.2065,36.7488],[-110.2003,36.7518],[-110.1918,36.7515],[-110.1694,36.7452],[-110.1417,36.7467],[-110.0968,36.7556],[-110.074,36.7672],[-110.0257,36.7734],[-110.0084,36.7802],[-109.9471,36.7974],[-109.8939,36.8183],[-109.8766,36.8266],[-109.832,36.857],[-109.8183,36.864],[-109.8065,36.8665],[-109.7823,36.8634],[-109.7711,36.8669],[-109.7647,36.8718],[-109.7473,36.8921],[-109.7404,36.8941],[-109.7331,36.894],[-109.7303,36.8919],[-109.7283,36.886],[-109.7285,36.8775],[-109.7368,36.8604],[-109.7362,36.8595],[-109.729,36.8611],[-109.72,36.8708],[-109.7138,36.8737],[-109.703,36.8744],[-109.6961,36.8718],[-109.6893,36.8717],[-109.6496,36.8752],[-109.5835,36.862],[-109.5507,36.8609],[-109.5265,36.8622],[-109.4943,36.856],[-109.4556,36.8516],[-109.4272,36.8524],[-109.4098,36.8491],[-109.395,36.8515],[-109.3693,36.8439],[-109.3294,36.8432],[-109.3237,36.847],[-109.3082,36.8486],[-109.2935,36.8523],[-109.288,36.8653],[-109.2801,36.8759],[-109.2569,36.89],[-109.2029,36.892],[-109.1718,36.8958],[-109.1296,36.8949],[-109.1189,36.8977],[-109.1095,36.9065],[-109.1069,36.9202],[-109.1006,36.9327],[-109.1003,36.9383],[-109.092,36.9476],[-109.0843,36.9528],[-109.061,36.9616],[-109.0544,36.9628],[-109.0425,36.9622],[-109.04,36.9707],[-109.0276,36.973],[-109.014,36.97],[-108.9812,36.9695],[-108.9509,36.9733],[-108.913,36.9738],[-108.8922,36.9722],[-108.8701,36.9684],[-108.8552,36.968],[-108.838,36.973],[-108.8015,36.9883],[-108.779,37.0077],[-108.7775,37.0127],[-108.7738,37.0165],[-108.7562,37.024],[-108.7354,37.0355],[-108.7259,37.0372],[-108.6854,37.0542],[-108.6554,37.0618],[-108.623,37.066],[-108.5875,37.0548],[-108.5819,37.0546],[-108.5765,37.0569],[-108.5727,37.0559],[-108.552,37.062],[-108.5302,37.059],[-108.5097,37.0504],[-108.5057,37.0513],[-108.4878,37.0491],[-108.4822,37.0522],[-108.4684,37.051],[-108.4626,37.052],[-108.4557,37.0493],[-108.4388,37.0506],[-108.4235,37.0493],[-108.421,37.048],[-108.4207,37.0461],[-108.4085,37.039],[-108.3991,37.0382],[-108.3886,37.0397],[-108.3858,37.0381],[-108.3789,37.0385],[-108.3746,37.0364],[-108.3669,37.0203],[-108.3688,37.0135],[-108.3661,37.0034],[-108.3399,36.9911],[-108.315,36.97],[-108.2998,36.9605],[-108.2871,36.948],[-108.2793,36.9442],[-108.2599,36.9389],[-108.2358,36.9401],[-108.2096,36.9348],[-108.1931,36.9281],[-108.1851,36.9273],[-108.1778,36.9183],[-108.1715,36.9141],[-108.1636,36.9124],[-108.1577,36.9119],[-108.1475,36.916],[-108.1355,36.9176],[-108.1163,36.91],[-108.1135,36.9074],[-108.0973,36.9072],[-108.0933,36.9044],[-108.0857,36.9035],[-108.0635,36.8917],[-108.0495,36.8906],[-108.0447,36.8855],[-108.0407,36.8745],[-108.0282,36.8651],[-108.0266,36.8605],[-108.0148,36.8489],[-108.0118,36.8357],[-108.007,36.8286],[-107.9897,36.821],[-107.9624,36.8169],[-107.9188,36.8018],[-107.8728,36.7559],[-107.8299,36.7214],[-107.8226,36.7175],[-107.8054,36.7154],[-107.7851,36.7073],[-107.7688,36.6981],[-107.7404,36.6865],[-107.7211,36.6737],[-107.7077,36.6608],[-107.695,36.6435],[-107.6928,36.6377],[-107.6857,36.6327],[-107.6823,36.6235],[-107.674,36.6133],[-107.6701,36.5916],[-107.6709,36.5822],[-107.6665,36.574],[-107.6669,36.5687],[-107.6639,36.5673],[-107.6539,36.5544],[-107.6327,36.541],[-107.6217,36.5293],[-107.6115,36.5227],[-107.5684,36.5007],[-107.5602,36.4938],[-107.5496,36.4909],[-107.5434,36.4861],[-107.525,36.478],[-107.5146,36.4665],[-107.5091,36.4559],[-107.4884,36.4467],[-107.4829,36.4425],[-107.4758,36.4335],[-107.4733,36.422],[-107.4738,36.4103],[-107.4684,36.3785],[-107.4606,36.3725],[-107.4483,36.3432],[-107.4317,36.3279],[-107.4268,36.3261],[-107.408,36.3253],[-107.3625,36.3248],[-107.3387,36.3167],[-107.3156,36.3128],[-107.2893,36.3217],[-107.267,36.3268],[-107.2513,36.3287],[-107.2221,36.3239],[-107.2028,36.3232],[-107.1798,36.3198],[-107.154,36.3242],[-107.1246,36.3229],[-107.1175,36.3193],[-107.11,36.3114],[-107.0863,36.3009],[-107.0745,36.2915],[-107.0699,36.2802],[-107.0543,36.2672],[-107.0492,36.2583],[-107.0311,36.2349],[-107.0218,36.2281],[-107.0046,36.2235],[-106.9489,36.2255],[-106.9413,36.2273],[-106.9227,36.2363],[-106.911,36.2398],[-106.8497,36.2356],[-106.8248,36.2314],[-106.8038,36.2225],[-106.7979,36.2175],[-106.7862,36.2126],[-106.777,36.199],[-106.7633,36.1938],[-106.7562,36.1889],[-106.741,36.1866],[-106.7218,36.1791],[-106.7033,36.174],[-106.671,36.1737],[-106.6702,36.1711],[-106.6642,36.1689],[-106.6615,36.1639],[-106.6546,36.1627],[-106.6427,36.1633],[-106.6293,36.1726],[-106.6044,36.1787],[-106.5902,36.1851],[-106.581,36.1877],[-106.5593,36.1894],[-106.5311,36.2061],[-106.4805,36.2469],[-106.4759,36.2537],[-106.4724,36.2552],[-106.449,36.2579],[-106.4284,36.2573],[-106.4057,36.2542]],[[-111.9104,37.1238],[-111.9117,37.1267]],[[-111.9104,37.1238],[-111.9117,37.1267]],[[-111.9117,37.1267],[-111.9141,37.1294],[-111.9197,37.1306],[-111.9184,37.139],[-111.9232,37.1418],[-111.9215,37.1507],[-111.918,37.1554],[-111.9184,37.1637],[-111.9157,37.1677],[-111.9147,37.1791],[-111.921,37.1883],[-111.9213,37.1974],[-111.9248,37.2052],[-111.9243,37.2226],[-111.9293,37.2244],[-111.9321,37.2296],[-111.9391,37.2371],[-111.9509,37.2438]],[[-111.9576,37.2411],[-111.9561,37.2443],[-111.9509,37.2438]],[[-111.9509,37.2438],[-111.9576,37.2411]],[[-113.9255,36.9282],[-113.9103,36.9903],[-113.9052,36.9966],[-113.8995,37.0002],[-113.8948,37.0133],[-113.8907,37.019],[-113.8787,37.0212],[-113.8678,37.0269],[-113.8616,37.024],[-113.8594,37.0209],[-113.8523,37.0192],[-113.8501,37.0118],[-113.8453,37.0093],[-113.8222,37.0123],[-113.8129,37.0172],[-113.8068,37.0258],[-113.8031,37.0283],[-113.7976,37.0388],[-113.7928,37.0418],[-113.7899,37.0515],[-113.7807,37.0554],[-113.7699,37.0689],[-113.764,37.0672],[-113.763,37.0652],[-113.7513,37.0661],[-113.7475,37.0632],[-113.7414,37.0666],[-113.7365,37.0658],[-113.7357,37.0671],[-113.7259,37.0674],[-113.7205,37.0693],[-113.7107,37.0666],[-113.7104,37.063],[-113.707,37.0604],[-113.6963,37.0576],[-113.6859,37.0647],[-113.6781,37.0644],[-113.6739,37.0616],[-113.6558,37.0566],[-113.6505,37.0515],[-113.631,37.0536],[-113.6076,37.0514],[-113.6018,37.0523],[-113.591,37.0586],[-113.5771,37.0596],[-113.5674,37.0527],[-113.5548,37.0484],[-113.5364,37.0383],[-113.5302,37.0339],[-113.527,37.0295],[-113.5152,37.0224],[-113.495,37.0152],[-113.474,37.0104],[-113.455,37.0017],[-113.4436,37.0001],[-113.4326,37.0012],[-113.4108,37.0077],[-113.402,37.0088],[-113.3882,37.0084],[-113.3693,37.0048],[-113.3446,37.0078],[-113.3333,37.0072],[-113.3181,37.0113],[-113.3125,37.011],[-113.2926,37.0025],[-113.2875,37.0021],[-113.2475,37.0048],[-113.2358,37.0045],[-113.2229,37.002],[-113.1913,37.0028],[-113.1721,37.0012],[-113.1607,37.004],[-113.1409,37.006],[-113.1159,37.0119],[-113.0928,36.9994],[-113.0815,37.0002],[-113.0709,36.9868],[-113.0596,36.9772],[-113.0525,36.9732],[-113.0404,36.9704],[-113.0292,36.9634],[-113.0097,36.9451],[-112.9979,36.9401],[-112.989,36.9252],[-112.9785,36.9177],[-112.934,36.9015],[-112.8822,36.8784],[-112.8459,36.8692],[-112.8114,36.8624],[-112.7912,36.8628],[-112.7564,36.8585],[-112.7427,36.8593],[-112.7078,36.8658],[-112.6694,36.877],[-112.6555,36.8825],[-112.6361,36.8976],[-112.6198,36.9026],[-112.6057,36.9094],[-112.5817,36.9159],[-112.5583,36.9318],[-112.5439,36.9443],[-112.5338,36.951],[-112.5303,36.9517],[-112.5319,36.9585],[-112.531,36.9613],[-112.5227,36.9674],[-112.5022,36.9783],[-112.4873,36.9976],[-112.4726,37.0081],[-112.4541,37.0184],[-112.4054,37.0263],[-112.3594,37.0314],[-112.2945,37.0325],[-112.2302,37.0362],[-112.2003,37.0479],[-112.168,37.0715],[-112.1354,37.0861],[-112.1218,37.1058],[-112.094,37.1607],[-112.0681,37.1738],[-112.0455,37.1822],[-112.0359,37.1879],[-112.0288,37.1892],[-112.0041,37.1997],[-112.0005,37.2043],[-111.9994,37.2128],[-111.9897,37.2279],[-111.975,37.2357],[-111.9641,37.2381],[-111.9582,37.2376],[-111.9594,37.2395],[-111.9576,37.2411]],[[-116.1692,35.4909],[-116.1619,35.4781],[-116.1612,35.4668],[-116.157,35.463],[-116.1415,35.4298],[-116.1404,35.4123],[-116.1455,35.3831],[-116.145,35.3504],[-116.1333,35.3349],[-116.1066,35.3141],[-116.0918,35.2927],[-116.0867,35.2767],[-116.0886,35.2592],[-116.0959,35.2404],[-116.0944,35.201],[-116.1021,35.1904],[-116.1057,35.1791],[-116.1065,35.1628],[-116.1034,35.147],[-116.1069,35.1373]]]},"properties":{"name":"Armijo Route","kind":"route"}},
 {"type":"Feature","geometry":{"type":"MultiLineString","coordinates":[[[-114.3154,36.6663],[-114.3047,36.6717],[-114.2992,36.6814],[-114.2954,36.6846],[-114.2802,36.689],[-114.2636,36.6968],[-114.2602,36.7016],[-114.2605,36.7087],[-114.2583,36.7124],[-114.2548,36.7159],[-114.2428,36.7211],[-114.2359,36.7309],[-114.2282,36.7369],[-114.205,36.7439],[-114.1909,36.7461],[-114.1811,36.7515],[-114.155,36.7739],[-114.1351,36.7841],[-114.1109,36.7931],[-114.0858,36.7951],[-114.0498,36.8047],[-114.008,36.8094],[-114.0035,36.8105],[-114.0004,36.8134],[-113.9917,36.8148],[-113.974,36.8397],[-113.9684,36.8424],[-113.9665,36.8464],[-113.9684,36.8481],[-113.9671,36.8514],[-113.9594,36.8633],[-113.9487,36.875],[-113.9305,36.8883],[-113.9302,36.9004],[-113.9264,36.9039],[-113.9245,36.9183],[-113.9255,36.9282]],[[-116.1657,35.8701],[-116.2233,35.8488],[-116.2249,35.8417],[-116.2227,35.8382],[-116.2236,35.8303],[-116.2201,35.8277],[-116.2172,35.8147],[-116.2133,35.8125],[-116.2132,35.7954],[-116.203,35.7878],[-116.2021,35.7832],[-116.2073,35.7704],[-116.2115,35.7688],[-116.2134,35.765],[-116.2195,35.7618],[-116.2183,35.7585],[-116.2207,35.7555],[-116.2226,35.7449],[-116.2208,35.7346],[-116.2217,35.725],[-116.2286,35.7217],[-116.2422,35.7035],[-116.2643,35.6868],[-116.2774,35.6719],[-116.2805,35.6638],[-116.2821,35.6464],[-116.2854,35.6318],[-116.2854,35.628],[-116.2812,35.6239],[-116.2565,35.6196],[-116.234,35.6064],[-116.2256,35.5933],[-116.2161,35.5852],[-116.2077,35.5739],[-116.1972,35.5651],[-116.192,35.5512],[-116.1739,35.5189],[-116.1716,35.5081],[-116.1692,35.5057],[-116.1704,35.4951],[-116.1692,35.4909]],[[-116.1656,35.8701],[-116.1657,35.8701]],[[-116.0539,35.8846],[-116.0611,35.8849],[-116.075,35.8891],[-116.0969,35.8896],[-116.1113,35.8851],[-116.1356,35.8824],[-116.1451,35.8794],[-116.1502,35.8755],[-116.1573,35.8773],[-116.1657,35.8701]],[[-117.4145,34.219],[-117.4073,34.2094],[-117.4101,34.2074],[-117.4114,34.2021],[-117.4193,34.1953],[-117.4325,34.1891],[-117.4424,34.1789],[-117.4599,34.1682],[-117.5014,34.1472],[-117.5585,34.1247],[-117.6191,34.105],[-117.6361,34.1023],[-117.7081,34.0806],[-117.7366,34.0789],[-117.7594,34.0706],[-117.7928,34.0645],[-117.8085,34.0574],[-117.827,34.0308],[-117.8341,34.0269],[-117.852,34.0223],[-117.8819,34.0103],[-117.9103,34.0089],[-117.9362,34.0118],[-117.9597,34.0248],[-117.9749,34.0388],[-117.992,34.0476],[-118.035,34.0741],[-118.0578,34.0816],[-118.0656,34.0821],[-118.1058,34.0968],[-118.1422,34.0805],[-118.1658,34.0777],[-118.1743,34.0716],[-118.1831,34.0624],[-118.2047,34.0653],[-118.2256,34.0649],[-118.2343,34.0629],[-118.2382,34.0575]],[[-117.4145,34.219],[-117.4044,34.2192],[-117.397,34.2154],[-117.3829,34.2035],[-117.3712,34.1908],[-117.3569,34.1635],[-117.3451,34.1472],[-117.327,34.1158],[-117.321,34.1083],[-117.3102,34.102],[-117.3076,34.0967],[-117.3074,34.082]],[[-117.4314,34.3265],[-117.4382,34.3292],[-117.4412,34.3334]],[[-117.4314,34.3265],[-117.413,34.3304],[-117.3916,34.349],[-117.3741,34.3547],[-117.3681,34.3591],[-117.3527,34.3653],[-117.3145,34.3714],[-117.3073,34.3811],[-117.2909,34.3983],[-117.2845,34.404],[-117.2751,34.409],[-117.2485,34.4083],[-117.232,34.4117]],[[-117.4412,34.3334],[-117.4506,34.325],[-117.4626,34.3173],[-117.4624,34.3082],[-117.4664,34.3049],[-117.456,34.291],[-117.4523,34.2735],[-117.4567,34.2685],[-117.4667,34.2637],[-117.4678,34.2608],[-117.4639,34.255],[-117.4422,34.2424],[-117.4145,34.219]],[[-117.232,34.4117],[-117.2361,34.3921],[-117.237,34.3782],[-117.2354,34.3667],[-117.2387,34.3537],[-117.2295,34.3438],[-117.2304,34.3426],[-117.2748,34.3369],[-117.2849,34.3315],[-117.3115,34.3213],[-117.3222,34.3144],[-117.3329,34.3105],[-117.3442,34.3104],[-117.3807,34.3203],[-117.4089,34.3252],[-117.4314,34.3265]],[[-117.331,34.5869],[-117.3346,34.5793],[-117.3412,34.5724],[-117.3475,34.5522],[-117.3683,34.523],[-117.3904,34.485],[-117.4078,34.4593],[-117.4081,34.4483],[-117.4148,34.4349],[-117.4186,34.4171],[-117.4226,34.411],[-117.4237,34.3941],[-117.4309,34.3782],[-117.4311,34.3698],[-117.4389,34.3597],[-117.4335,34.3534],[-117.4324,34.3489],[-117.4384,34.3412],[-117.4412,34.3334]],[[-117.331,34.5869],[-117.3296,34.5831],[-117.3241,34.5779],[-117.3003,34.5645],[-117.2935,34.5523],[-117.2871,34.5339],[-117.2696,34.523],[-117.2568,34.5091],[-117.2501,34.4922],[-117.2495,34.4643],[-117.2395,34.4473],[-117.2335,34.4264],[-117.232,34.4117]],[[-117.331,34.5869],[-117.3323,34.594],[-117.341,34.6085],[-117.3473,34.667],[-117.3313,34.7297],[-117.3159,34.7568],[-117.2854,34.7775],[-117.2747,34.7823],[-117.2632,34.7905],[-117.2456,34.795],[-117.2277,34.8023],[-117.1988,34.8174],[-117.1941,34.8218],[-117.1841,34.8383],[-117.177,34.8459],[-117.165,34.855],[-117.1474,34.8625],[-117.1233,34.8798],[-117.101,34.8899],[-117.0802,34.8931],[-117.0601,34.9014],[-117.0401,34.9047],[-117.0196,34.9107],[-117.003,34.908],[-116.9807,34.8944],[-116.9733,34.8915],[-116.9607,34.8884],[-116.9475,34.8873],[-116.9312,34.8794],[-116.9077,34.8763],[-116.8804,34.8779],[-116.8376,34.8915],[-116.7655,34.9048]]]},"properties":{"name":"Armijo & Northern Routes","kind":"route"}},
 {"type":"Feature","geometry":{"type":"LineString","coordinates":[[-116.1064,35.1394],[-116.0867,35.1365],[-116.0308,35.1195],[-115.9763,35.1007],[-115.9594,35.1028],[-115.9389,35.1003],[-115.9049,35.0889],[-115.8591,35.077],[-115.8447,35.0808],[-115.8338,35.0797],[-115.8317,35.0812],[-115.8316,35.0868],[-115.826,35.0936],[-115.8267,35.101],[-115.8181,35.1178],[-115.8149,35.1321],[-115.8117,35.1369],[-115.7356,35.1474],[-115.7205,35.1553],[-115.7047,35.1581],[-115.6948,35.1575],[-115.6723,35.1475],[-115.656,35.1459],[-115.6484,35.1499],[-115.6438,35.1549],[-115.6435,35.1603],[-115.6482,35.1675],[-115.6478,35.1697],[-115.5996,35.1887],[-115.5716,35.1876],[-115.5092,35.1756],[-115.4638,35.1635],[-115.441,35.1633],[-115.4277,35.1717],[-115.4213,35.1705],[-115.4083,35.1753],[-115.404,35.1754],[-115.376,35.1633],[-115.3701,35.1554],[-115.3604,35.152],[-115.3576,35.1487],[-115.3503,35.1523],[-115.3321,35.1577],[-115.328,35.1554],[-115.328,35.1532],[-115.3298,35.1528],[-115.3258,35.1505],[-115.3107,35.1452],[-115.2414,35.1386],[-115.1863,35.138],[-115.1631,35.1304],[-115.1161,35.1185],[-115.0495,35.1057],[-115.0306,35.104],[-115.0106,35.0989],[-115.0033,35.1015],[-115.001,35.1009],[-114.99,35.1122],[-114.9838,35.1148],[-114.9342,35.1226],[-114.9128,35.1274],[-114.9037,35.1312],[-114.8986,35.1362],[-114.8956,35.1417],[-114.8939,35.15],[-114.8996,35.1959],[-114.9053,35.2807],[-114.9132,35.3382],[-114.9347,35.4359],[-114.9378,35.4661],[-114.9348,35.4952],[-114.9209,35.5392],[-114.9194,35.5553],[-114.9215,35.577],[-114.9267,35.6022],[-114.9293,35.6083],[-114.9733,35.6814],[-114.9816,35.7103],[-114.9865,35.7508],[-114.9835,35.7861],[-114.9766,35.8113],[-114.9545,35.8518],[-114.9266,35.8975],[-114.9211,35.9124],[-114.9135,35.9435],[-114.9125,35.9686],[-114.9254,36.0096],[-114.9324,36.0266],[-114.9396,36.0618],[-114.9353,36.0677],[-114.9275,36.0712],[-114.9164,36.0855],[-114.9107,36.0899],[-114.8903,36.1176],[-114.8773,36.122],[-114.8581,36.1228]]},"properties":{"name":"Mojave Road","kind":"route"}},
 {"type":"Feature","geometry":{"type":"LineString","coordinates":[[-116.7655,34.9048],[-116.7086,34.9175],[-116.6585,34.9246],[-116.6397,34.9299],[-116.6323,34.9334],[-116.6118,34.9368],[-116.5974,34.9429],[-116.5866,34.9501],[-116.5673,34.9542],[-116.5642,34.9559],[-116.5602,34.9623],[-116.5536,34.9653],[-116.5471,34.965],[-116.5335,34.968],[-116.5145,34.9787],[-116.4939,34.9824],[-116.4806,34.9898],[-116.4757,34.9944],[-116.4637,35.0154],[-116.4492,35.0256],[-116.4426,35.0246],[-116.4362,35.0276],[-116.4326,35.0315],[-116.4193,35.0399],[-116.4011,35.0422],[-116.3902,35.0372],[-116.3819,35.038],[-116.3736,35.033],[-116.3671,35.0323],[-116.3713,35.0288],[-116.3713,35.0261],[-116.3639,35.0278],[-116.355,35.0231],[-116.3475,35.0268],[-116.3376,35.0262],[-116.3327,35.0277],[-116.3236,35.0346],[-116.3161,35.0368],[-116.3013,35.0458],[-116.2815,35.052],[-116.2723,35.0525],[-116.2264,35.0471],[-116.1992,35.0477],[-116.1888,35.0504],[-116.1495,35.0708],[-116.1261,35.0875],[-116.1071,35.1188],[-116.1069,35.1373]]},"properties":{"name":"Armijo & Mojave Routes","kind":"route"}},
 {"type":"Feature","geometry":{"type":"MultiLineString","coordinates":[[[-110.8643,39.2026],[-110.8643,39.2026]],[[-110.8647,39.2026],[-110.8635,39.2023]],[[-110.9376,39.1849],[-110.9341,39.1905],[-110.9286,39.1955],[-110.9097,39.2024],[-110.8931,39.2026],[-110.8882,39.2013],[-110.8819,39.2035],[-110.8689,39.2014],[-110.8644,39.2026]],[[-110.9547,39.1749],[-110.9547,39.1749],[-110.9547,39.1749],[-110.9547,39.1749]],[[-110.9547,39.1749],[-110.9535,39.1545],[-110.9458,39.166],[-110.9378,39.166],[-110.9354,39.1705],[-110.9371,39.1724],[-110.9363,39.1828],[-110.9376,39.1849],[-110.9389,39.1805],[-110.9547,39.1749]],[[-110.4552,39.1192],[-110.4607,39.1281],[-110.4724,39.1326],[-110.4849,39.1318],[-110.4918,39.1343],[-110.5017,39.1325],[-110.5053,39.134],[-110.5115,39.1306],[-110.5182,39.1302],[-110.5223,39.1265],[-110.5361,39.1299],[-110.5513,39.1369],[-110.5995,39.1457],[-110.645,39.1581],[-110.6593,39.1604],[-110.6662,39.1643],[-110.6736,39.1632],[-110.6977,39.1674],[-110.7117,39.1719],[-110.7123,39.1746],[-110.7155,39.1769],[-110.7169,39.1754],[-110.7269,39.1743],[-110.741,39.1787],[-110.7713,39.1793],[-110.7975,39.1779],[-110.816,39.1811],[-110.8634,39.2023]],[[-110.452,39.1148],[-110.4522,39.118],[-110.4552,39.1192],[-110.452,39.1148]],[[-110.452,39.1148],[-110.4515,39.1129]],[[-110.451,39.1117],[-110.4515,39.1129],[-110.4515,39.1124],[-110.451,39.1117]],[[-110.451,39.1117],[-110.4504,39.1101]],[[-110.4496,39.1088],[-110.4496,39.1093],[-110.4504,39.1101],[-110.4496,39.1088]],[[-110.4488,39.1075],[-110.4496,39.1088]],[[-110.4476,39.1044],[-110.4476,39.1052],[-110.4478,39.1048],[-110.4476,39.1044]],[[-110.4476,39.1044],[-110.4475,39.1036]],[[-110.447,39.1026],[-110.4475,39.1036],[-110.4475,39.103],[-110.447,39.1026]],[[-110.447,39.1026],[-110.443,39.0958],[-110.4344,39.09],[-110.4311,39.0815],[-110.4283,39.0798],[-110.4232,39.071],[-110.4233,39.0687],[-110.4176,39.0626],[-110.4094,39.0591],[-110.3977,39.0609],[-110.3966,39.0571],[-110.3929,39.0575],[-110.3898,39.0498],[-110.382,39.0467],[-110.3765,39.042],[-110.3746,39.0384],[-110.3678,39.0369],[-110.3636,39.0342],[-110.3538,39.0325],[-110.3509,39.0345],[-110.3464,39.0326]],[[-110.2974,38.9915],[-110.2874,38.9922],[-110.2917,38.9978],[-110.3117,39.0023],[-110.3171,39.0059],[-110.324,39.0058],[-110.3272,39.0115],[-110.3348,39.0136],[-110.3393,39.0195],[-110.3373,39.0268],[-110.3406,39.032],[-110.3392,39.0358],[-110.3417,39.0363],[-110.3464,39.0326],[-110.341,39.0172],[-110.3344,39.0098],[-110.3076,38.9924],[-110.2974,38.9915]],[[-110.9535,39.1545],[-110.9569,39.1427],[-110.9678,39.1335],[-110.9761,39.1297],[-110.9837,39.1296],[-110.9908,39.123],[-111.0228,39.1149],[-111.0342,39.1099],[-111.0468,39.0972],[-111.0636,39.0843],[-111.0887,39.073],[-111.1036,39.0613],[-111.1264,39.0375],[-111.1299,39.0258],[-111.1503,39.0085],[-111.1749,38.9679],[-111.2097,38.9309],[-111.2607,38.8841],[-111.2759,38.8627],[-111.2889,38.8485],[-111.3001,38.8394],[-111.3352,38.8177],[-111.3404,38.8125],[-111.353,38.7964],[-111.3643,38.7728],[-111.3712,38.7674],[-111.3857,38.7626],[-111.4,38.762],[-111.4538,38.7653],[-111.5131,38.8045],[-111.5312,38.8145],[-111.536,38.8204],[-111.5391,38.8213],[-111.5394,38.8425],[-111.5421,38.8493],[-111.5487,38.8527],[-111.5534,38.8591],[-111.5531,38.8741],[-111.5545,38.8763],[-111.571,38.8832],[-111.5751,38.8831],[-111.5778,38.8805],[-111.6017,38.8838],[-111.6283,38.8956],[-111.6381,38.906],[-111.6417,38.9044],[-111.6457,38.8977],[-111.6561,38.8978],[-111.671,38.9021],[-111.6878,38.9037],[-111.6995,38.9073],[-111.704,38.9102],[-111.7093,38.909],[-111.7218,38.9152],[-111.7391,38.9153],[-111.7455,38.9164],[-111.7511,38.9205],[-111.7627,38.9204],[-111.7795,38.9243],[-111.7917,38.9316],[-111.8366,38.9323],[-111.8533,38.9392],[-111.8571,38.9394],[-111.8804,38.9311],[-111.8904,38.9292],[-111.8986,38.9218],[-111.9204,38.9135],[-111.9408,38.8985],[-111.9557,38.8785],[-111.9606,38.8634],[-111.9731,38.8451],[-112.0033,38.8234],[-112.0136,38.818],[-112.0233,38.8095],[-112.0378,38.7905],[-112.0607,38.7699],[-112.0698,38.7535],[-112.0743,38.7484],[-112.0986,38.7254],[-112.1323,38.6886],[-112.1495,38.6746],[-112.187,38.6576],[-112.2044,38.6402],[-112.2116,38.6251],[-112.2247,38.6112],[-112.2266,38.6057],[-112.2271,38.5913]],[[-110.2874,38.9922],[-110.2653,38.9856],[-110.2614,38.9819],[-110.254,38.9803],[-110.2139,38.9811],[-110.2071,38.9827],[-110.2004,38.9867],[-110.1898,38.9989],[-110.1632,39.0172],[-110.1457,39.012],[-110.1403,39.0067],[-110.137,38.9942],[-110.1307,38.9832],[-110.1005,38.9631],[-110.0982,38.9587],[-110.0846,38.9508],[-110.0386,38.917],[-110.0249,38.9028],[-110.0157,38.8888],[-109.9951,38.8718],[-109.9287,38.8389],[-109.859,38.7919],[-109.8408,38.7761],[-109.8293,38.7698],[-109.8247,38.7646],[-109.823,38.7597],[-109.8008,38.7448],[-109.7926,38.7414],[-109.7657,38.7369],[-109.7378,38.7279],[-109.7248,38.7283],[-109.7188,38.7206],[-109.7097,38.7151],[-109.699,38.6824],[-109.6857,38.6666],[-109.6719,38.6446],[-109.6535,38.628],[-109.6273,38.6146],[-109.608,38.6088],[-109.5956,38.588],[-109.5863,38.5885],[-109.5801,38.5853],[-109.5735,38.5771]],[[-112.2172,38.5659],[-112.2198,38.5723],[-112.2206,38.5856],[-112.2271,38.5913],[-112.2273,38.5822],[-112.2252,38.5739],[-112.2172,38.5659]],[[-112.2172,38.5659],[-112.2086,38.5593],[-112.2048,38.5522],[-112.1685,38.5296],[-112.1672,38.5267],[-112.168,38.5219],[-112.1771,38.5154]],[[-112.1771,38.5114],[-112.1766,38.5093],[-112.18,38.5127],[-112.1794,38.5137],[-112.1771,38.5114],[-112.1771,38.5154],[-112.1794,38.5137]],[[-112.1763,38.5093],[-112.18,38.5013],[-112.1907,38.4958]],[[-109.5953,38.588],[-109.5903,38.5815],[-109.5836,38.5781],[-109.5718,38.5769],[-109.5587,38.5719],[-109.5234,38.5512],[-109.5006,38.541],[-109.4873,38.5306],[-109.4498,38.4722],[-109.4395,38.449],[-109.4383,38.4343],[-109.4403,38.4235],[-109.4442,38.4156],[-109.4505,38.4085],[-109.4542,38.3997],[-109.4527,38.3858],[-109.4483,38.3778],[-109.4384,38.3681],[-109.4355,38.3617],[-109.4301,38.3605],[-109.4345,38.359],[-109.4308,38.3396],[-109.4285,38.3341],[-109.4095,38.3123],[-109.401,38.3083],[-109.3867,38.2748],[-109.3832,38.2601],[-109.3807,38.2244],[-109.3775,38.2102],[-109.377,38.1892],[-109.3733,38.1808],[-109.3726,38.1731],[-109.3687,38.1729],[-109.3657,38.1706],[-109.36,38.1707]],[[-109.3689,38.173],[-109.3653,38.172],[-109.3621,38.1733],[-109.36,38.1707],[-109.3565,38.172],[-109.3539,38.1756],[-109.3507,38.1752],[-109.3462,38.171],[-109.3438,38.1707],[-109.3435,38.1668],[-109.3365,38.1602],[-109.3307,38.1604],[-109.3158,38.1652],[-109.3152,38.1554],[-109.3131,38.1521],[-109.3136,38.1498],[-109.3171,38.1472],[-109.314,38.1429],[-109.3074,38.1416],[-109.3031,38.1447],[-109.3027,38.156],[-109.3056,38.1588],[-109.3073,38.1657],[-109.3134,38.167],[-109.3158,38.1652]],[[-109.3074,38.1416],[-109.3054,38.1298],[-109.2992,38.122],[-109.2971,38.1197],[-109.2859,38.1154],[-109.2888,38.1081],[-109.2865,38.1082],[-109.2817,38.1034],[-109.2666,38.0998],[-109.2614,38.0931],[-109.2517,38.0893],[-109.2373,38.0779],[-109.2357,38.07],[-109.234,38.0686],[-109.2314,38.0536],[-109.2305,38.0432],[-109.232,38.034]],[[-109.2323,38.0317],[-109.232,38.034],[-109.2328,38.0329],[-109.2323,38.0317]],[[-113.9255,36.9282],[-113.9259,36.9503],[-113.922,36.9685],[-113.9205,36.9693],[-113.9145,36.9888],[-113.9114,37.0117],[-113.9017,37.0418],[-113.8917,37.0611],[-113.8849,37.069],[-113.8699,37.0783],[-113.8574,37.0861],[-113.837,37.0951],[-113.8304,37.1022],[-113.8248,37.1128],[-113.818,37.1368],[-113.8093,37.1474],[-113.7816,37.167],[-113.7749,37.1777],[-113.7704,37.1916],[-113.7771,37.1993],[-113.7814,37.216],[-113.7822,37.2434],[-113.779,37.2609],[-113.7676,37.2848],[-113.7416,37.3019],[-113.7356,37.3078],[-113.7311,37.3253],[-113.7273,37.3331],[-113.7198,37.344],[-113.6895,37.3767],[-113.6824,37.3986],[-113.6792,37.4366],[-113.6775,37.4396],[-113.6614,37.4483],[-113.6558,37.4531],[-113.6544,37.4594],[-113.6468,37.4725],[-113.6345,37.5023],[-113.6251,37.5175],[-113.6203,37.5313],[-113.6191,37.5421],[-113.6201,37.5532],[-113.6266,37.5786],[-113.624,37.5943],[-113.6186,37.606],[-113.598,37.6207],[-113.5497,37.6647],[-113.5324,37.6949],[-113.5186,37.705],[-113.5151,37.7097],[-113.5126,37.7239],[-113.4925,37.7546],[-113.472,37.7759],[-113.458,37.7833],[-113.4408,37.7877],[-113.3762,37.7859],[-113.3514,37.7819],[-113.3075,37.7671],[-113.224,37.749],[-113.1962,37.7402],[-113.1752,37.741],[-113.1658,37.7437],[-113.1478,37.7552],[-113.1164,37.7582],[-113.0918,37.7658],[-113.0692,37.7678],[-113.0247,37.7812],[-112.9994,37.7939],[-112.9581,37.8225],[-112.9513,37.8249],[-112.9407,37.8265],[-112.9201,37.8263],[-112.8982,37.8334],[-112.8586,37.8412],[-112.834,37.8496],[-112.814,37.8604],[-112.7756,37.8888],[-112.7584,37.8976],[-112.7439,37.9028],[-112.7298,37.906],[-112.7086,37.9056],[-112.7017,37.9047],[-112.6756,37.8964],[-112.6658,37.8987],[-112.6439,37.9125],[-112.6193,37.9179],[-112.61,37.9251],[-112.6038,37.937],[-112.5769,37.9565],[-112.5671,37.9655],[-112.5528,37.9714],[-112.5441,37.9786],[-112.5404,37.9869],[-112.5371,37.9895],[-112.5206,37.9981],[-112.5102,37.9972],[-112.4927,37.9845],[-112.4777,37.971],[-112.4706,37.9673],[-112.4674,37.967],[-112.4586,37.9713],[-112.4445,37.9717],[-112.4197,37.9692],[-112.416,37.9708],[-112.413,37.9731],[-112.4078,37.9876],[-112.3885,37.9998],[-112.3659,38.0233],[-112.3593,38.0272],[-112.356,38.0323],[-112.3451,38.0723],[-112.3414,38.1038],[-112.3325,38.1205],[-112.325,38.1285],[-112.2846,38.1586],[-112.2686,38.1758],[-112.2292,38.1979],[-112.2173,38.2152],[-112.2083,38.2344],[-112.2071,38.2424],[-112.2156,38.2571],[-112.2137,38.2863],[-112.205,38.3114],[-112.1917,38.3334],[-112.191,38.3437],[-112.195,38.355],[-112.2037,38.3651],[-112.2061,38.3705],[-112.206,38.3787],[-112.2023,38.3981],[-112.2036,38.4065],[-112.2099,38.4145],[-112.2117,38.4288],[-112.2229,38.4417],[-112.2254,38.4474],[-112.2223,38.4619],[-112.2106,38.4768],[-112.1957,38.4873],[-112.1907,38.4958],[-112.1933,38.4951],[-112.2019,38.4837]],[[-109.2323,38.0317],[-109.233,38.0261],[-109.2372,38.0196],[-109.237,38.0143],[-109.2394,38.009],[-109.2508,37.993],[-109.2531,37.986],[-109.2522,37.9828],[-109.2447,37.9797],[-109.198,37.972],[-109.1753,37.9637],[-109.166,37.9573],[-109.1422,37.9493],[-109.122,37.9355],[-109.0975,37.9039],[-109.0908,37.8993],[-109.0672,37.8888],[-109.0499,37.8713],[-109.043,37.8681],[-109.0418,37.8643],[-109.0382,37.8608],[-109.0208,37.8494],[-109.0199,37.8453],[-109.0106,37.8348],[-109.0007,37.8174],[-108.9748,37.7908],[-108.9647,37.7833],[-108.9623,37.7777],[-108.9526,37.7705],[-108.9405,37.7446],[-108.9322,37.7371],[-108.9143,37.7291],[-108.9044,37.7188],[-108.8938,37.7113],[-108.8874,37.7001],[-108.8856,37.6937],[-108.877,37.688],[-108.8765,37.686],[-108.8796,37.6804],[-108.8799,37.6736],[-108.8821,37.671],[-108.8826,37.6629],[-108.8729,37.6657],[-108.8675,37.6702],[-108.8521,37.6732],[-108.8464,37.67],[-108.8393,37.6695],[-108.8313,37.6561],[-108.8217,37.6501],[-108.8138,37.6492],[-108.8074,37.6433],[-108.8007,37.6203],[-108.786,37.5941],[-108.773,37.5836],[-108.7697,37.5752],[-108.769,37.5672],[-108.763,37.5631],[-108.7522,37.5503],[-108.7383,37.541],[-108.7233,37.5265],[-108.6993,37.512],[-108.6877,37.5076],[-108.6859,37.5034],[-108.677,37.497],[-108.651,37.4929],[-108.6292,37.4915],[-108.6041,37.4904],[-108.5787,37.4921],[-108.5653,37.4899],[-108.5373,37.473],[-108.51,37.4628],[-108.4932,37.4536],[-108.4649,37.4439],[-108.4422,37.4396],[-108.4282,37.4351],[-108.4197,37.4351],[-108.3972,37.4243],[-108.3782,37.4193],[-108.3661,37.4115],[-108.3632,37.4027],[-108.3555,37.3898],[-108.3457,37.3824],[-108.337,37.3806],[-108.3253,37.3809],[-108.2837,37.3706],[-108.2739,37.3727],[-108.2628,37.3652],[-108.2581,37.3637],[-108.241,37.3638],[-108.2341,37.3621],[-108.2138,37.3487],[-108.2123,37.3441],[-108.2138,37.3382],[-108.2122,37.3356],[-108.2085,37.3348],[-108.1985,37.3383],[-108.1897,37.3386],[-108.1841,37.3353],[-108.1774,37.3264],[-108.1708,37.3228],[-108.1533,37.3203],[-108.1358,37.3214],[-108.1265,37.3258],[-108.119,37.3273],[-108.0992,37.3258],[-108.088,37.3196],[-108.071,37.3142],[-108.0575,37.3017],[-108.0453,37.2942],[-108.0374,37.2855],[-108.0165,37.2556],[-107.9872,37.2472],[-107.9837,37.2426],[-107.9771,37.2389],[-107.9761,37.2367],[-107.9779,37.2318],[-107.9813,37.2284],[-107.9807,37.225],[-107.9783,37.2228],[-107.969,37.2227],[-107.9605,37.2271],[-107.9562,37.2276],[-107.9381,37.2265],[-107.9294,37.2275],[-107.9076,37.2228],[-107.9007,37.2194],[-107.8899,37.2183],[-107.8751,37.2099],[-107.8614,37.215],[-107.8575,37.2191],[-107.8541,37.218],[-107.8484,37.22],[-107.8407,37.2281],[-107.8331,37.2301],[-107.8156,37.2267],[-107.8025,37.2284],[-107.7875,37.228],[-107.7622,37.2215],[-107.754,37.2143],[-107.7434,37.2118],[-107.7407,37.2052],[-107.7226,37.1922],[-107.6792,37.1737],[-107.6497,37.1407],[-107.6387,37.1153],[-107.6228,37.102],[-107.6109,37.0885],[-107.5968,37.0808],[-107.5498,37.0604],[-107.526,37.0441],[-107.4926,37.0403],[-107.4634,37.0308],[-107.4213,37.0202],[-107.3931,37.0192],[-107.3606,37.0219],[-107.3362,37.022],[-107.2818,37.0049],[-107.2362,37.0004],[-107.232,36.9929],[-107.229,36.9704],[-107.2068,36.9524],[-107.1884,36.9316],[-107.1535,36.9077],[-107.1384,36.8904],[-107.1248,36.8611],[-107.1222,36.8509],[-107.1222,36.8399],[-107.1196,36.8268],[-107.1105,36.8094],[-107.1083,36.7959],[-107.1018,36.7853],[-107.0947,36.7684],[-107.0925,36.7409],[-107.0913,36.7379],[-107.0854,36.7326],[-107.0566,36.7162],[-107.0388,36.7124],[-107.0329,36.7079],[-107.0173,36.7018],[-107.0082,36.6955],[-106.9893,36.6891],[-106.9784,36.6883],[-106.9687,36.681],[-106.963,36.6793],[-106.9514,36.6685],[-106.9491,36.66],[-106.9469,36.6452],[-106.9507,36.6411],[-106.9515,36.637],[-106.9451,36.6291],[-106.9354,36.6241],[-106.9004,36.6201],[-106.8695,36.6315],[-106.8677,36.6311],[-106.8523,36.6122],[-106.8462,36.6101],[-106.8315,36.6092],[-106.8212,36.6104],[-106.8138,36.6132],[-106.8086,36.617],[-106.8029,36.6256],[-106.7953,36.6298],[-106.7805,36.6302],[-106.7722,36.6231],[-106.7634,36.6092],[-106.7547,36.6061],[-106.7437,36.6087],[-106.7254,36.6211]],[[-106.651,36.5594],[-106.6612,36.5685],[-106.6634,36.5758],[-106.6798,36.5915],[-106.7177,36.6204],[-106.7624,36.6244],[-106.7763,36.6302],[-106.7805,36.6302]],[[-106.1188,36.0632],[-106.1281,36.0768],[-106.1497,36.0997],[-106.1569,36.1094],[-106.1712,36.1392],[-106.1788,36.1506],[-106.1889,36.1577],[-106.1918,36.1627],[-106.206,36.1735],[-106.2215,36.1801],[-106.2407,36.1909],[-106.2559,36.2057],[-106.2671,36.2141],[-106.2763,36.2143],[-106.2906,36.2097],[-106.3182,36.2078],[-106.3225,36.2098],[-106.3426,36.2119],[-106.3613,36.222],[-106.3928,36.2345],[-106.3974,36.2307],[-106.3991,36.2342],[-106.3972,36.2416],[-106.3987,36.2479],[-106.4129,36.2591],[-106.4152,36.2631],[-106.4223,36.2686],[-106.4283,36.2782],[-106.4446,36.2875],[-106.4686,36.2906],[-106.4808,36.3073],[-106.5028,36.3224],[-106.5125,36.3398],[-106.5198,36.3467],[-106.5226,36.3561],[-106.5195,36.3613],[-106.5061,36.3665],[-106.5036,36.3813],[-106.4935,36.3903],[-106.493,36.3944],[-106.4975,36.3996],[-106.492,36.406],[-106.4838,36.4118],[-106.4809,36.4178],[-106.4789,36.4159],[-106.4754,36.4179],[-106.4786,36.4302],[-106.4749,36.4365],[-106.4743,36.4556],[-106.4785,36.4666],[-106.5134,36.4854],[-106.5396,36.4854],[-106.5657,36.4965],[-106.569,36.4993],[-106.5748,36.4988],[-106.5862,36.5018],[-106.5945,36.5089],[-106.5995,36.5092],[-106.6169,36.5164],[-106.6229,36.5163],[-106.623,36.5203],[-106.6211,36.5221],[-106.6237,36.5264],[-106.6208,36.529],[-106.6232,36.5374],[-106.6336,36.5522],[-106.6418,36.5577],[-106.6516,36.5588],[-106.6486,36.5528],[-106.6487,36.548],[-106.6464,36.546],[-106.6469,36.5441],[-106.643,36.5435],[-106.6396,36.541],[-106.6401,36.5382],[-106.6365,36.5275],[-106.6381,36.5245],[-106.6524,36.5201],[-106.6634,36.5204],[-106.6614,36.512],[-106.6622,36.5091],[-106.6672,36.5052],[-106.662,36.496],[-106.6262,36.4938],[-106.6063,36.4812],[-106.6008,36.481],[-106.5854,36.4739],[-106.5655,36.4704],[-106.5597,36.4678],[-106.5374,36.4645],[-106.5265,36.4529],[-106.5115,36.4439],[-106.5071,36.437],[-106.4985,36.4344],[-106.493,36.4265],[-106.4802,36.4218],[-106.4809,36.4178]],[[-106.1184,36.063],[-106.1188,36.0632],[-106.1188,36.0631],[-106.1184,36.063]],[[-106.0641,35.9871],[-106.0663,35.9941],[-106.0668,36.0227],[-106.0701,36.0424],[-106.0743,36.0531],[-106.084,36.0577],[-106.104,36.0586],[-106.1184,36.063],[-106.0958,36.0259],[-106.0907,36.0125],[-106.0853,35.9895],[-106.0641,35.9871]],[[-114.3154,36.6663],[-114.3187,36.6672],[-114.3214,36.673],[-114.3294,36.6823],[-114.3364,36.6865],[-114.3404,36.685],[-114.3813,36.6847],[-114.4197,36.6803],[-114.4301,36.6813],[-114.4715,36.6957],[-114.4874,36.6974],[-114.5041,36.6919],[-114.5183,36.6734],[-114.541,36.6689],[-114.5609,36.6693],[-114.5923,36.657],[-114.605,36.6559],[-114.6184,36.6444],[-114.641,36.6305],[-114.6496,36.6231],[-114.6584,36.6204],[-114.6611,36.618],[-114.6621,36.6137],[-114.6834,36.581],[-114.6913,36.5607],[-114.6991,36.5545],[-114.7031,36.5391],[-114.7121,36.5299],[-114.7189,36.5171],[-114.7275,36.5086],[-114.7381,36.4761],[-114.7387,36.4661],[-114.7604,36.4433],[-114.7657,36.4338],[-114.7792,36.4167],[-114.7854,36.3986],[-114.799,36.3783],[-114.8139,36.3621],[-114.8264,36.3583],[-114.8333,36.348],[-114.8342,36.3417],[-114.8402,36.3349],[-114.8404,36.3298],[-114.8377,36.3273],[-114.8459,36.3192],[-114.8609,36.315],[-114.8772,36.3062],[-114.8823,36.3024],[-114.8826,36.2997],[-114.8873,36.2938],[-114.8994,36.2851],[-114.9084,36.2812],[-114.9124,36.2772],[-114.9471,36.2761],[-114.9623,36.2699],[-114.9778,36.2685],[-114.9948,36.2619],[-115.0196,36.2459],[-115.041,36.2283],[-115.078,36.2076],[-115.0919,36.1972],[-115.11,36.1899],[-115.1344,36.1765],[-115.1413,36.1701],[-115.1553,36.1647],[-115.1623,36.1587],[-115.1763,36.1512],[-115.1887,36.1413],[-115.2315,36.127],[-115.2648,36.1057],[-115.2936,36.0925],[-115.3,36.0877],[-115.3082,36.0843],[-115.3616,36.0729],[-115.3783,36.0644],[-115.3995,36.06],[-115.4059,36.0546],[-115.4086,36.0492],[-115.4054,36.0437],[-115.3971,36.0353],[-115.4026,36.0266],[-115.4186,36.0191],[-115.432,36.0093],[-115.455,35.9974],[-115.4632,35.9944],[-115.4736,35.9956],[-115.4807,36.0005],[-115.4872,36.0016],[-115.4897,36.0083],[-115.498,36.0118],[-115.5064,36.0198],[-115.5201,36.0226],[-115.5439,36.0248],[-115.5543,36.0234],[-115.5743,36.0117],[-115.5906,36.0058],[-115.6117,36.001],[-115.6355,35.9989],[-115.6606,35.9915],[-115.6732,35.9914],[-115.6896,35.9886],[-115.7413,35.9743],[-115.8089,35.9874],[-115.822,35.9839],[-115.8253,35.9816],[-115.8286,35.9831],[-115.8558,35.9713],[-115.8607,35.9709],[-115.8888,35.9613],[-115.9553,35.9329],[-115.9745,35.9273],[-115.9803,35.9237],[-116.002,35.9015],[-116.0323,35.8871],[-116.0539,35.8846]],[[-106.0641,35.9871],[-106.0587,35.9864],[-106.0457,35.9771],[-106.0346,35.9642],[-106.0203,35.941],[-106.0153,35.9232],[-106.0157,35.9138],[-106.0199,35.8985],[-106.0255,35.8892],[-106.0249,35.8864],[-106.0174,35.878],[-106.0057,35.8594],[-105.9934,35.8294],[-105.9824,35.8124],[-105.9583,35.7826],[-105.9353,35.7593],[-105.9281,35.7445],[-105.9241,35.7244],[-105.9274,35.708],[-105.9335,35.6936],[-105.9431,35.6852],[-105.9553,35.6785]],[[-116.1693,35.4909],[-116.1665,35.4776],[-116.1664,35.4607],[-116.1737,35.4386],[-116.1735,35.4261],[-116.1768,35.4151],[-116.1754,35.4093],[-116.2087,35.3651],[-116.226,35.3518],[-116.2321,35.3492],[-116.2519,35.336],[-116.2679,35.3298],[-116.2888,35.3246],[-116.3019,35.3179],[-116.3094,35.3129],[-116.3249,35.2985],[-116.3959,35.2532],[-116.4212,35.2341],[-116.4271,35.2318],[-116.4591,35.2271],[-116.4664,35.2246],[-116.4838,35.2086],[-116.504,35.1988],[-116.5148,35.19],[-116.5479,35.1691],[-116.572,35.1597],[-116.5814,35.1429],[-116.5846,35.1281],[-116.5886,35.1221],[-116.5925,35.12],[-116.5909,35.1082],[-116.5947,35.0991],[-116.5969,35.0814],[-116.5942,35.0738],[-116.5952,35.0645],[-116.6067,35.0572],[-116.6074,35.0536],[-116.6317,35.0382],[-116.6422,35.0242],[-116.6485,35.0214],[-116.655,35.0149],[-116.6616,34.9988],[-116.679,34.9753],[-116.7115,34.936],[-116.7387,34.9166],[-116.7535,34.9085],[-116.7655,34.9048]]]},"properties":{"name":"Northern Route","kind":"route"}},
 {"type":"Feature","geometry":{"type":"Point","coordinates":[-105.93816,35.68788]},"properties":{"name":"Palace of the Governors","kind":"place","description":"The Palace of the Governors, built in 1610, served for 300 years as the seat of the Spanish, Mexican, and American territorial government in New Mexico. After occupying New Mexico for the United States in 1846, General Stephen W. Kearny raised the U.S. flag over the palace and took up temporary residence inside of it.","place":"Santa Fe, NM","url":"https://www.nps.gov/places/palace-of-the-governors.htm"}},
 {"type":"Feature","geometry":{"type":"Point","coordinates":[-105.57891,36.38828]},"properties":{"name":"Taos Field Office, Bureau of Land Management","kind":"place","description":"Areas managed within this office\u2019s boundaries include both the Mountain Route and the Cimarron Route of the Santa Fe Trail.","place":"Taos, NM","url":"https://www.blm.gov/office/taos-field-office"}},
 {"type":"Feature","geometry":{"type":"Point","coordinates":[-110.54269,36.68298]},"properties":{"name":"Navajo National Monument","kind":"place","description":"The Ancestral Puebloan people farmed the canyons, enabling them to flourish in this high desert environment. They hunted wild game and grew corn, beans, and squash.","place":"Shonto, AZ","url":"http://www.nps.gov/nava"}},
 {"type":"Feature","geometry":{"type":"Point","coordinates":[-112.73649,36.86207]},"properties":{"name":"Pipe Spring National Monument","kind":"place","description":"The Pipe Spring National Monument Historic District includes three historic sandstone buildings (the imposing Pipe Spring fort, flanked by two small cabins, one to the west and another to the northeast); two historic-period sites (the Whitmore-McInytre dugout and a lime kiln); and three structures associated with the site's history (the quarry trail, fort ponds; and retaining walls northeast of the fort). Construction dates for these resources range from 1863 to ca. 1885. Built by local craftsmen, the architectural style of the buildings is vernacular with the fort incorporating some Classical design elements.","place":"Fredonia, AZ","url":"http://www.nps.gov/pisp"}},
 {"type":"Feature","geometry":{"type":"Point","coordinates":[-118.238,34.0573]},"properties":{"name":"El Pueblo de Los Angeles Historical Monument","kind":"place","description":"El Pueblo de Los Angeles Historical Monument is near the site of the early Los Angeles pueblo or town where forty-four settlers of Native American, African and European heritage journeyed more than one-thousand miles across the desert from present-day northern Mexico and established a farming community in September 1781. Since that time, Los Angeles has been under the flags of Spain, Mexico and the United States and has grown into one of the world\u2019s largest metropolitan areas.","place":"Los Angeles, CA","url":"https://www.nps.gov/places/el-pueblo-de-los-angeles-historical-monument.htm"}},
 {"type":"Feature","geometry":{"type":"Point","coordinates":[-117.02101,34.871]},"properties":{"name":"Mojave National Preserve","kind":"place","description":"Before contact with the Europeans changed their world, the Chemehuevi lived on prickly pear, mesquite and roasted agave blooms and hunted deer and bighorn sheep. They resided in the Kingston, New York, and Providence Mountains west to Soda Dry Lake and south to the Whipple Mountains. Mojave tribal peoples were concentrated along the Colorado River and the Mojave trail became their main trading route. When explorer Father Francis Garces traveled across the Mojave Desert, in 1776, he was met by members of the Mojave Tribe. Other intrepid explorers would follow Garces, including Jedediah Smith in 1826 and John Fremont in 1844. Concern abounded about tribal attacks on the mail carriers who traveled the Mojave Road. During the 1860s government outposts were established providing protection for the mail wagons. During this same era, gold fever struck California. The General Mining Law of 1872 permitted individuals to stake a claim on an area of land where a mineral deposit was discovered. Copper, iron, gold and silver mines rapidly became established in the Mojave. In 1883, on the eastern side of the Providence Mountains, silver was discovered in the Bonanza King Mine. In the 1940s the Kaiser Steel Company extracted more than two million tons of iron ore from the Vulcan Mine which was used in the construction of the Liberty ships during World War II. Mojave's history is as varied and colorful as the individuals who staked their claim in the desert. During the 1930s, Mary Beale hiked the Providence Mountains and identified several species of plants and wildflowers. Her friends, Jack and Ida Mitchell, built a road, trails and stairs where they led tours of limestone caverns. About 10 years later, Dr. Curtis Springer established a mineral springs resort, Zzyzx. From there, he would broadcast his syndicated radio show on how to achieve sound physical and spiritual health. Now, Zzyzx is home to California State University's Desert Studies Center.","place":"Barstow, CA","url":"https://www.nps.gov/places/mojave-national-preserve-the-old-spanish-trail.htm"}},
 {"type":"Feature","geometry":{"type":"Point","coordinates":[-117.02546,34.90519]},"properties":{"name":"Route 66 Mother Road Museum","kind":"place","description":"During the heyday of rail passenger service in the Western United States, Barstow boasted a splendid rail depot/restaurant/hotel complex called the \"Casa del Desierto\", House of the Desert. Completed in 1911, the Casa del Desierto was the fourth \"Harvey House\" built by the Atchinson, Topeka, and the Santa Fe Railway Company along its right-of-way and operated by the Fred Harvey Company. These Harvey Houses established an unparalleled standard of food service to the traveler, and entered the lore of American railroading and the West.","place":"Barstow, CA","url":"http://www.route66museum.org/"}},
 {"type":"Feature","geometry":{"type":"Point","coordinates":[-108.546,37.47632]},"properties":{"name":"Canyons of the Ancients National Monument Visitor Center and Museum","kind":"place","description":"The Anasazi Heritage Center is a museum of the Ancestral Puebloan (or Anasazi) Culture and other Native cultures in the Four Corners region.  It is also the starting point for visits to Canyons of the Ancients National Monument.","place":"Dolores, CO","url":"https://www.blm.gov/programs/national-conservation-lands/colorado/canyons-of-the-ancients"}},
 {"type":"Feature","geometry":{"type":"Point","coordinates":[-107.16583,38.46688]},"properties":{"name":"Curecanti National Recreation Area","kind":"place","description":"Human occupation of the Curecanti area dates back to at least 10,000 years ago. Archeologists have uncovered the remains of ancient structures called wickiups that date back 4,500 years. Utes of historic times summered in the mountains and wintered near today's Montrose and Grand Junction. Like many of the area's earlier inhabitants, they were attracted here by the abundance of game in the dry hills and river valleys, and by the vegetation in the canyons and on the mesas. Fur traders and miners blazed the northern branch of the Old Spanish Trail from Santa Fe to Los Angeles. This trail first linked the Utes to Anglo and Spanish commerce. In 1965, Blue Mesa Dam was completed, and the largest body of water in Colorado, Blue Mesa Reservoir, began to fill. Blue Mesa, Morrow Point and Crystal reservoirs are collectively called the Wayne N. Aspinall Storage Unit, and were created primarily to provide water storage to the Upper Colorado River Basin states of Colorado, Wyoming, New Mexico and Utah.","place":"Gunnison, CO","url":"https://www.nps.gov/places/curecanti-national-recreation-area-the-old-spanish-trail.htm"}},
 {"type":"Feature","geometry":{"type":"Point","coordinates":[-105.43177,37.42423]},"properties":{"name":"Fort Garland Museum","kind":"place","description":"Established in 1858 in southern Colorado, Fort Garland, with its garrison of over 100 men, served to protect the earliest settlers in the San Luis Valley.","place":"Fort Garland, CO","url":"https://www.nps.gov/places/fort-garland-museum.htm"}},
 {"type":"Feature","geometry":{"type":"Point","coordinates":[-108.53133,39.11867]},"properties":{"name":"Grand Junction Field Office, Bureau of Land Management","kind":"place","description":"Grand Junction Field Office hasmany fine examples of rock art and other cultural resources that reflect Colorado's rich archaeological heritage.","place":"Grand Junction, CO","url":"http://www.blm.gov/office/grand-junction-field-office"}},
 {"type":"Feature","geometry":{"type":"Point","coordinates":[-106.93611,38.53844]},"properties":{"name":"Gunnison Field Office, Bureau of Land Management","kind":"place","description":"Ecosystems within the GFO range from dry sagebrush steppes at 7,000 feet to forests of aspen, ponderosa pine, Douglas fir, lodgepole pine, Engelmann spruce, and subalpine fir to alpine tundra meadows that reach to over 14,000 feet.","place":"Gunnison, CO","url":"https://www.blm.gov/office/gunnison-field-office"}},
 {"type":"Feature","geometry":{"type":"Point","coordinates":[-115.42215,36.13356]},"properties":{"name":"Red Rock Canyon National Conservation Area","kind":"place","description":"The unique geologic features, plants and animals of Red Rock  represent some of the best examples of the Mojave Desert.","place":"Las Vegas, NV","url":"https://www.redrockcanyonlv.org/"}},
 {"type":"Feature","geometry":{"type":"Point","coordinates":[-110.14132,38.99331]},"properties":{"name":"John Wesley Powell River History Museum","kind":"place","description":"John Wesley Powell River History Museum is the premiere museum of the history of the Green and Colorado Rivers, in the Western United States. The focus of the museum is John Wesley Powell and his crew\u2019s exploration, mapping and surveying the last unknown area of the United States, in 1869, and in 1871-72.","place":"Green River, UT","url":"https://www.nps.gov/places/john-wesley-powell-river-history-museum.htm"}},
 {"type":"Feature","geometry":{"type":"Point","coordinates":[-112.08515,38.78304]},"properties":{"name":"Richfield Vistor Center","kind":"place","description":"This visitor center is located near the trail route.","place":"Richfield, UT","url":"https://www.nps.gov/places/richfield-visitor-center.htm"}},
 {"type":"Feature","geometry":{"type":"Point","coordinates":[-111.01728,39.21273]},"properties":{"name":"Museum of the San Rafael","kind":"place","description":"Between 1829 and 1848, pack mule caravans and travelers used the Old Spanish Trail as a trade route between Santa Fe, New Mexico, and Los Angeles, California, which were part of Northern Mexico at the time. The northernmost point on the trail lies near the museum. Travelers on the Old Spanish Trail venturing through this area veered north of the San Rafael Swell to avoid the swell itself.","place":"Castle Dale, UT","url":"https://www.nps.gov/places/museum-of-the-san-rafael.htm"}},
 {"type":"Feature","geometry":{"type":"Point","coordinates":[-107.52781,36.47941]},"properties":{"name":"Canon Largo ATV Trailhead","kind":"place","description":"Largo Canyon is also where Armijo and his men camped while traveling through to meet the San Juan River.","place":"NM","url":"https://www.nps.gov/places/canon-largo-atv-trailhead.htm"}},
 {"type":"Feature","geometry":{"type":"Point","coordinates":[-110.41557,39.06275]},"properties":{"name":"Upper Cottonwood Wash","kind":"place","description":"Upper Cottonwood Wash follows exact trail trace on the Old Spanish Trail. It was used by many Old Spanish Trail traders as well as many groups after it, serving as an important travel corridor.","place":"UT","url":"https://www.nps.gov/places/upper-cottonwood-wash.htm"}},
 {"type":"Feature","geometry":{"type":"Point","coordinates":[-117.36449,34.04134]},"properties":{"name":"Agua Mansa Pioneer Cemetery","kind":"place","description":"The Agua Mansa Pioneer Cemetery is all that remains of the communities of Agua Mansa and La Placita, the first non-native settlements in the San Bernardino Valley.","place":"Colton, CA","url":"https://www.nps.gov/places/agua-mansa-pioneer-cemetery.htm"}},
 {"type":"Feature","geometry":{"type":"Point","coordinates":[-117.96552,34.02002]},"properties":{"name":"Workman and Temple Family Homestead Museum","kind":"place","description":"The Workman family used the trail to migrate from New Mexico to greater Los Angeles in 1841 and became a prominent family in this region over nearly the next century.","place":"City of Industry, CA","url":"https://www.nps.gov/places/workman-and-temple-family-homestead-museum.htm"}}
]}
